start=new Date('2022-09-28T00:00:00.000Z').valueOf();
sats=[{"REV_AT_EPOCH":"2139","APOAPSIS":"541.225","SEMIMAJOR_AXIS":"6917.839","RCS_SIZE":"LARGE","INCLINATION":"53.2207","FILE":"3585280","LAUNCH_DATE":"2022-05-13","CLASSIFICATION_TYPE":"U","EPHEMERIS_TYPE":"0","OBJECT_ID":"2022-051P","ARG_OF_PERICENTER":"39.3182","TIME_SYSTEM":"UTC","OBJECT_TYPE":"PAYLOAD","OBJECT_NAME":"STARLINK-3948","MEAN_ELEMENT_THEORY":"SGP4","DECAY_DATE":null,"PERIOD":"95.437","BSTAR":"0.00015639000000","MEAN_MOTION_DOT":"0.00002202","ELEMENT_SET_NO":"999","MEAN_ANOMALY":"320.7970","CENTER_NAME":"EARTH","REF_FRAME":"TEME","MEAN_MOTION":"15.08853691","COUNTRY_CODE":"US","GP_ID":"213668644","EPOCH":"2022-09-27T18:45:36.003744","SITE":"AFWTR","NORAD_CAT_ID":"52546","ECCENTRICITY":"0.00022000","RA_OF_ASC_NODE":"20.5753","PERIAPSIS":"538.182","MEAN_MOTION_DDOT":"0.0000000000000","TLE_LINE2":"2 52546  53.2207  20.5753 0002200  39.3182 320.7970 15.08853691 21394","TLE_LINE1":"1 52546U 22051P   22270.78166671  .00002202  00000-0  15639-3 0  9990"},{"CLASSIFICATION_TYPE":"U","LAUNCH_DATE":"2022-05-13","FILE":"3585053","INCLINATION":"53.2188","RCS_SIZE":"LARGE","SEMIMAJOR_AXIS":"6917.873","APOAPSIS":"540.944","REV_AT_EPOCH":"2134","MEAN_ELEMENT_THEORY":"SGP4","DECAY_DATE":null,"OBJECT_NAME":"STARLINK-3869","TIME_SYSTEM":"UTC","OBJECT_TYPE":"PAYLOAD","ARG_OF_PERICENTER":"48.5906","EPHEMERIS_TYPE":"0","OBJECT_ID":"2022-051Q","COUNTRY_CODE":"US","MEAN_MOTION":"15.08842466","REF_FRAME":"TEME","CENTER_NAME":"EARTH","MEAN_ANOMALY":"311.5236","ELEMENT_SET_NO":"999","MEAN_MOTION_DOT":"-0.00001513","BSTAR":"-0.00007698700000","PERIOD":"95.437","TLE_LINE1":"1 52547U 22051Q   22270.49137792 -.00001513  00000-0 -76987-4 0  9991","TLE_LINE2":"2 52547  53.2188  26.8895 0001744  48.5906 311.5236 15.08842466 21343","PERIAPSIS":"538.531","MEAN_MOTION_DDOT":"0.0000000000000","ECCENTRICITY":"0.00017440","RA_OF_ASC_NODE":"26.8895","NORAD_CAT_ID":"52547","SITE":"AFWTR","EPOCH":"2022-09-27T11:47:35.052288","GP_ID":"213614057"},{"COUNTRY_CODE":"US","MEAN_MOTION":"15.08842604","ELEMENT_SET_NO":"999","CENTER_NAME":"EARTH","MEAN_ANOMALY":"302.8365","REF_FRAME":"TEME","PERIOD":"95.437","BSTAR":"0.00013453000000","MEAN_MOTION_DOT":"0.00001854","TLE_LINE2":"2 52548  53.2209  21.5326 0001463  57.2768 302.8365 15.08842604 21362","TLE_LINE1":"1 52548U 22051R   22270.56727441  .00001854  00000-0  13453-3 0  9990","RA_OF_ASC_NODE":"21.5326","ECCENTRICITY":"0.00014630","MEAN_MOTION_DDOT":"0.0000000000000","PERIAPSIS":"538.725","NORAD_CAT_ID":"52548","EPOCH":"2022-09-27T13:36:52.509024","GP_ID":"213639411","SITE":"AFWTR","CLASSIFICATION_TYPE":"U","LAUNCH_DATE":"2022-05-13","FILE":"3585092","REV_AT_EPOCH":"2136","APOAPSIS":"540.750","SEMIMAJOR_AXIS":"6917.872","INCLINATION":"53.2209","RCS_SIZE":"LARGE","DECAY_DATE":null,"MEAN_ELEMENT_THEORY":"SGP4","ARG_OF_PERICENTER":"57.2768","OBJECT_TYPE":"PAYLOAD","TIME_SYSTEM":"UTC","OBJECT_NAME":"STARLINK-3931","EPHEMERIS_TYPE":"0","OBJECT_ID":"2022-051R"},{"MEAN_MOTION":"15.08834852","COUNTRY_CODE":"US","PERIOD":"95.438","MEAN_MOTION_DOT":"-0.00000218","BSTAR":"0.00000441170000","ELEMENT_SET_NO":"999","MEAN_ANOMALY":"310.3195","CENTER_NAME":"EARTH","REF_FRAME":"TEME","ECCENTRICITY":"0.00015710","RA_OF_ASC_NODE":"21.7460","PERIAPSIS":"538.674","MEAN_MOTION_DDOT":"0.0000000000000","TLE_LINE2":"2 52549  53.2195  21.7460 0001571  49.7935 310.3195 15.08834852 21428","TLE_LINE1":"1 52549U 22051S   22270.51943643 -.00000218  00000-0  44117-5 0  9997","GP_ID":"213614070","EPOCH":"2022-09-27T12:27:59.307552","SITE":"AFWTR","NORAD_CAT_ID":"52549","LAUNCH_DATE":"2022-05-13","CLASSIFICATION_TYPE":"U","REV_AT_EPOCH":"2142","APOAPSIS":"540.848","SEMIMAJOR_AXIS":"6917.896","RCS_SIZE":"LARGE","INCLINATION":"53.2195","FILE":"3585054","DECAY_DATE":null,"MEAN_ELEMENT_THEORY":"SGP4","EPHEMERIS_TYPE":"0","OBJECT_ID":"2022-051S","ARG_OF_PERICENTER":"49.7935","OBJECT_TYPE":"PAYLOAD","TIME_SYSTEM":"UTC","OBJECT_NAME":"STARLINK-3935"},{"PERIOD":"95.436","BSTAR":"-0.00005927100000","MEAN_MOTION_DOT":"-0.00001232","ELEMENT_SET_NO":"999","CENTER_NAME":"EARTH","MEAN_ANOMALY":"304.6259","REF_FRAME":"TEME","MEAN_MOTION":"15.08866331","COUNTRY_CODE":"US","EPOCH":"2022-09-27T13:47:27.542976","GP_ID":"213613679","SITE":"AFWTR","NORAD_CAT_ID":"52550","ECCENTRICITY":"0.00017230","RA_OF_ASC_NODE":"21.4975","PERIAPSIS":"538.473","MEAN_MOTION_DDOT":"0.0000000000000","TLE_LINE2":"2 52550  53.2209  21.4975 0001723  55.4896 304.6259 15.08866331 21438","TLE_LINE1":"1 52550U 22051T   22270.57462434 -.00001232  00000-0 -59271-4 0  9993","REV_AT_EPOCH":"2143","SEMIMAJOR_AXIS":"6917.800","APOAPSIS":"540.857","RCS_SIZE":"LARGE","INCLINATION":"53.2209","FILE":"3585054","LAUNCH_DATE":"2022-05-13","CLASSIFICATION_TYPE":"U","OBJECT_ID":"2022-051T","EPHEMERIS_TYPE":"0","ARG_OF_PERICENTER":"55.4896","OBJECT_TYPE":"PAYLOAD","TIME_SYSTEM":"UTC","OBJECT_NAME":"STARLINK-3965","MEAN_ELEMENT_THEORY":"SGP4","DECAY_DATE":null},{"RCS_SIZE":"LARGE","INCLINATION":"53.2201","REV_AT_EPOCH":"2142","SEMIMAJOR_AXIS":"6917.858","APOAPSIS":"540.893","FILE":"3585054","LAUNCH_DATE":"2022-05-13","CLASSIFICATION_TYPE":"U","EPHEMERIS_TYPE":"0","OBJECT_ID":"2022-051U","OBJECT_NAME":"STARLINK-3969","ARG_OF_PERICENTER":"52.8658","TIME_SYSTEM":"UTC","OBJECT_TYPE":"PAYLOAD","MEAN_ELEMENT_THEORY":"SGP4","DECAY_DATE":null,"PERIOD":"95.437","MEAN_MOTION_DOT":"0.00003597","BSTAR":"0.00024390000000","CENTER_NAME":"EARTH","MEAN_ANOMALY":"307.2488","REF_FRAME":"TEME","ELEMENT_SET_NO":"999","MEAN_MOTION":"15.08847202","COUNTRY_CODE":"US","GP_ID":"213614069","EPOCH":"2022-09-27T12:22:41.917152","SITE":"AFWTR","NORAD_CAT_ID":"52551","PERIAPSIS":"538.554","MEAN_MOTION_DDOT":"0.0000000000000","RA_OF_ASC_NODE":"21.7656","ECCENTRICITY":"0.00016910","TLE_LINE1":"1 52551U 22051U   22270.51576293  .00003597  00000-0  24390-3 0  9994","TLE_LINE2":"2 52551  53.2201  21.7656 0001691  52.8658 307.2488 15.08847202 21429"},{"MEAN_MOTION":"15.08840845","COUNTRY_CODE":"US","PERIOD":"95.438","MEAN_MOTION_DOT":"-0.00000076","BSTAR":"0.00001332100000","ELEMENT_SET_NO":"999","CENTER_NAME":"EARTH","MEAN_ANOMALY":"307.7627","REF_FRAME":"TEME","ECCENTRICITY":"0.00016510","RA_OF_ASC_NODE":"21.8452","MEAN_MOTION_DDOT":"0.0000000000000","PERIAPSIS":"538.601","TLE_LINE2":"2 52552  53.2207  21.8452 0001651  52.3515 307.7627 15.08840845 21420","TLE_LINE1":"1 52552U 22051V   22270.49736230 -.00000076  00000-0  13321-4 0  9994","EPOCH":"2022-09-27T11:56:12.102720","GP_ID":"213613688","SITE":"AFWTR","NORAD_CAT_ID":"52552","LAUNCH_DATE":"2022-05-13","CLASSIFICATION_TYPE":"U","REV_AT_EPOCH":"2142","SEMIMAJOR_AXIS":"6917.878","APOAPSIS":"540.885","INCLINATION":"53.2207","RCS_SIZE":"LARGE","FILE":"3585054","MEAN_ELEMENT_THEORY":"SGP4","DECAY_DATE":null,"EPHEMERIS_TYPE":"0","OBJECT_ID":"2022-051V","ARG_OF_PERICENTER":"52.3515","OBJECT_TYPE":"PAYLOAD","TIME_SYSTEM":"UTC","OBJECT_NAME":"STARLINK-3966"},{"LAUNCH_DATE":"2022-05-13","CLASSIFICATION_TYPE":"U","REV_AT_EPOCH":"2136","SEMIMAJOR_AXIS":"6917.855","APOAPSIS":"540.926","INCLINATION":"53.2202","RCS_SIZE":"LARGE","FILE":"3585092","DECAY_DATE":null,"MEAN_ELEMENT_THEORY":"SGP4","EPHEMERIS_TYPE":"0","OBJECT_ID":"2022-051W","ARG_OF_PERICENTER":"48.6757","OBJECT_TYPE":"PAYLOAD","TIME_SYSTEM":"UTC","OBJECT_NAME":"STARLINK-3858","MEAN_MOTION":"15.08848341","COUNTRY_CODE":"US","PERIOD":"95.437","MEAN_MOTION_DOT":"-0.00000397","BSTAR":"-0.00000684680000","ELEMENT_SET_NO":"999","CENTER_NAME":"EARTH","MEAN_ANOMALY":"311.4385","REF_FRAME":"TEME","RA_OF_ASC_NODE":"21.4827","ECCENTRICITY":"0.00017430","MEAN_MOTION_DDOT":"0.0000000000000","PERIAPSIS":"538.514","TLE_LINE2":"2 52553  53.2202  21.4827 0001743  48.6757 311.4385 15.08848341 21361","TLE_LINE1":"1 52553U 22051W   22270.57831257 -.00000397  00000-0 -68468-5 0  9999","GP_ID":"213639740","EPOCH":"2022-09-27T13:52:46.206048","SITE":"AFWTR","NORAD_CAT_ID":"52553"},{"SITE":"AFWTR","GP_ID":"213614060","EPOCH":"2022-09-27T11:36:58.853664","NORAD_CAT_ID":"52554","ECCENTRICITY":"0.00014960","RA_OF_ASC_NODE":"26.9254","PERIAPSIS":"538.725","MEAN_MOTION_DDOT":"0.0000000000000","TLE_LINE2":"2 52554  53.2200  26.9254 0001496  63.8317 296.2829 15.08835286 21345","TLE_LINE1":"1 52554U 22051X   22270.48401451  .00002006  00000-0  14409-3 0  9990","MEAN_MOTION_DOT":"0.00002006","BSTAR":"0.00014409000000","PERIOD":"95.438","ELEMENT_SET_NO":"999","REF_FRAME":"TEME","CENTER_NAME":"EARTH","MEAN_ANOMALY":"296.2829","MEAN_MOTION":"15.08835286","COUNTRY_CODE":"US","EPHEMERIS_TYPE":"0","OBJECT_ID":"2022-051X","OBJECT_TYPE":"PAYLOAD","TIME_SYSTEM":"UTC","ARG_OF_PERICENTER":"63.8317","OBJECT_NAME":"STARLINK-3770","DECAY_DATE":null,"MEAN_ELEMENT_THEORY":"SGP4","APOAPSIS":"540.795","SEMIMAJOR_AXIS":"6917.895","REV_AT_EPOCH":"2134","INCLINATION":"53.2200","RCS_SIZE":"LARGE","FILE":"3585054","LAUNCH_DATE":"2022-05-13","CLASSIFICATION_TYPE":"U"},{"OBJECT_ID":"2022-051Y","EPHEMERIS_TYPE":"0","ARG_OF_PERICENTER":"61.5373","OBJECT_TYPE":"PAYLOAD","TIME_SYSTEM":"UTC","OBJECT_NAME":"STARLINK-3949","MEAN_ELEMENT_THEORY":"SGP4","DECAY_DATE":null,"REV_AT_EPOCH":"2143","APOAPSIS":"540.639","SEMIMAJOR_AXIS":"6917.861","RCS_SIZE":"LARGE","INCLINATION":"53.2202","FILE":"3585264","LAUNCH_DATE":"2022-05-13","CLASSIFICATION_TYPE":"U","EPOCH":"2022-09-27T13:42:10.872288","GP_ID":"213643889","SITE":"AFWTR","NORAD_CAT_ID":"52555","RA_OF_ASC_NODE":"21.5132","ECCENTRICITY":"0.00013190","PERIAPSIS":"538.814","MEAN_MOTION_DDOT":"0.0000000000000","TLE_LINE2":"2 52555  53.2202  21.5132 0001319  61.5373 298.5752 15.08846258 21436","TLE_LINE1":"1 52555U 22051Y   22270.57095917 -.00000975  00000-0 -43143-4 0  9990","PERIOD":"95.437","BSTAR":"-0.00004314300000","MEAN_MOTION_DOT":"-0.00000975","ELEMENT_SET_NO":"999","CENTER_NAME":"EARTH","MEAN_ANOMALY":"298.5752","REF_FRAME":"TEME","MEAN_MOTION":"15.08846258","COUNTRY_CODE":"US"}];
